{
  "type": "FeatureCollection",
  "features": [
    {
      "type": "Feature",
      "geometry": { "type": "Point", "coordinates": [120.08430, 30.30728] },
      "properties": {
        "id": "study_001",
        "name": "基础图书馆",
        "data_type": "poi",
        "category": "library",
        "building": "基础图书馆",
        "floor": "",
        "room": "",
        "coordinate_system": "GCJ-02",
        "open_time": "08:00",
        "close_time": "22:30",
        "description": "东区核心图书馆，大量自习座位，需预约",
        "collector": "lsc",
        "updated_at": "2026/06/15",
        "audience": "both",
        "overnight": false,
        "notes": "不可熬夜"
      }
    },
    {
      "type": "Feature",
      "geometry": { "type": "Point", "coordinates": [120.07610, 30.30471] },
      "properties": {
        "id": "study_002",
        "name": "主图书馆",
        "data_type": "poi",
        "category": "library",
        "building": "主图书馆",
        "floor": "",
        "room": "",
        "coordinate_system": "GCJ-02",
        "open_time": "08:30",
        "close_time": "22:00",
        "description": "紫金港主图书馆，安静学习环境",
        "collector": "lsc",
        "updated_at": "2026/06/15",
        "audience": "both",
        "overnight": false,
        "notes": "除2楼外至22：30"
      }
    },
    {
      "type": "Feature",
      "geometry": { "type": "Point", "coordinates": [120.08515, 30.30348] },
      "properties": {
        "id": "study_005",
        "name": "东教1-B1楼自习室",
        "data_type": "poi",
        "category": "study_room",
        "building": "东教学区1号楼",
        "floor": "B1",
        "room": "B1自习室",
        "coordinate_system": "GCJ-02",
        "open_time": "07:00",
        "close_time": "23:00",
        "description": "地下一层自习室，座位充足",
        "collector": "lsc",
        "updated_at": "2026/06/15",
        "audience": "student",
        "overnight": true,
        "notes": "可熬夜（至23:00）"
      }
    },
    {
      "type": "Feature",
      "geometry": { "type": "Point", "coordinates": [120.07155, 30.30985] },
      "properties": {
        "id": "study_010",
        "name": "北街咖啡",
        "data_type": "poi",
        "category": "cafe",
        "building": "北街咖啡",
        "floor": "",
        "room": "",
        "coordinate_system": "GCJ-02",
        "open_time": "10:00",
        "close_time": "02:00",
        "description": "北街公共自习空间，可熬夜",
        "collector": "lsc",
        "updated_at": "2026/06/15",
        "audience": "both",
        "overnight": true,
        "notes": "可通宵"
      }
    },
    {
      "type": "Feature",
      "geometry": { "type": "Point", "coordinates": [120.08180, 30.30715] },
      "properties": {
        "id": "study_012",
        "name": "月牙楼地下一层自习室",
        "data_type": "poi",
        "category": "study_room",
        "building": "月牙楼",
        "floor": "B1",
        "room": "B1自习室",
        "coordinate_system": "GCJ-02",
        "open_time": "07:00",
        "close_time": "23:30",
        "description": "地标建筑内自习室",
        "collector": "lsc",
        "updated_at": "2026/06/15",
        "audience": "both",
        "overnight": true,
        "notes": "可熬夜（至23:30）"
      }
    },
    {
      "type": "Feature",
      "geometry": { "type": "Point", "coordinates": [120.07185, 30.30925] },
      "properties": {
        "id": "study_014",
        "name": "全家便利店（浙大紫金港北街店）",
        "data_type": "poi",
        "category": "cafe",
        "building": "全家便利店",
        "floor": "",
        "room": "",
        "coordinate_system": "GCJ-02",
        "open_time": "00:00",
        "close_time": "23:59",
        "description": "24小时便利店，少量座位",
        "collector": "lsc",
        "updated_at": "2026/06/15",
        "audience": "both",
        "overnight": true,
        "notes": "可熬夜（24h）"
      }
    },
    {
      "type": "Feature",
      "geometry": { "type": "Point", "coordinates": [120.08250, 30.31020] },
      "properties": {
        "id": "study_018",
        "name": "蓝田自习室",
        "data_type": "poi",
        "category": "study_room",
        "building": "蓝田学园",
        "floor": "1",
        "room": "公共自习室",
        "coordinate_system": "GCJ-02",
        "open_time": "07:00",
        "close_time": "23:00",
        "description": "宿舍区内自习室，方便住宿学生",
        "collector": "lsc",
        "updated_at": "2026/06/15",
        "audience": "student",
        "overnight": true,
        "notes": "可熬夜（至23:00）"
      }
    },
    {
      "type": "Feature",
      "geometry": { "type": "Point", "coordinates": [120.08380, 30.31080] },
      "properties": {
        "id": "study_019",
        "name": "紫云自习室",
        "data_type": "poi",
        "category": "study_room",
        "building": "紫云学园",
        "floor": "1",
        "room": "公共自习室",
        "coordinate_system": "GCJ-02",
        "open_time": "07:00",
        "close_time": "23:00",
        "description": "宿舍区内自习室",
        "collector": "lsc",
        "updated_at": "2026/06/15",
        "audience": "student",
        "overnight": true,
        "notes": "可熬夜（至23:00）"
      }
    }
  ]
}