{
  "type": "FeatureCollection",
  "features": [
    {
      "type": "Feature",
      "geometry": {
        "type": "Point",
        "coordinates": [120.0864, 30.3048]
      },
      "properties": {
        "id": "poi_demo_001",
        "name": "紫金港图书馆",
        "category": "library",
        "audience": "both",
        "open_time": "08:00-22:30",
        "description": "演示用虚假 POI，用于表示图书馆类校园地点。"
      }
    },
    {
      "type": "Feature",
      "geometry": {
        "type": "Point",
        "coordinates": [120.0881, 30.3055]
      },
      "properties": {
        "id": "poi_demo_002",
        "name": "东区食堂",
        "category": "canteen",
        "audience": "both",
        "open_time": "06:30-20:00",
        "description": "演示用虚假 POI，用于表示食堂类校园地点。"
      }
    },
    {
      "type": "Feature",
      "geometry": {
        "type": "Point",
        "coordinates": [120.0836, 30.3038]
      },
      "properties": {
        "id": "poi_demo_003",
        "name": "校史展示点",
        "category": "museum",
        "audience": "visitor",
        "open_time": "09:00-17:00",
        "description": "演示用虚假 POI，用于表示游客可查看的校园展示点。"
      }
    }
  ]
}
